[
    {
        "Altitude(m)": 604969.0892315401,
        "Argument of Periapsis(deg)": 0.0,
        "Eccentricity": 0.0,
        "Inclination(deg)": 60.0,
        "Latitude(deg)": -0.0927401549318566,
        "Longitude(deg)": -65.02247232362666,
        "Mean Anomaly(deg)": 0.0,
        "RAAN(deg)": 35.0,
        "Satellite Name": "Test1 154",
        "Satellite Number": 154,
        "Semi-Major Axis(m)": 6980739.136638005,
        "Time(s)": 0
    },
    {
        "Altitude(m)": 604900.0281742034,
        "Argument of Periapsis(deg)": 0.00010418945913296404,
        "Eccentricity": 0.0,
        "Inclination(deg)": 60.0,
        "Latitude(deg)": 0.4476859504716366,
        "Longitude(deg)": -64.75434971383025,
        "Mean Anomaly(deg)": 0.6201061454618275,
        "RAAN(deg)": 34.99957995086025,
        "Satellite Name": "Test1 154",
        "Satellite Number": 154,
        "Semi-Major Axis(m)": 6980739.136638005,
        "Time(s)": 10
    }
]